COSMOS 2433 (720)       
1 32275U 07052A   24365.36895136 -.00000047  00000+0  00000+0 0  9994
2 32275  65.8564 333.8406 0005130 263.6670  96.2713  2.13103981133688
COSMOS 2432 (719)       
1 32276U 07052B   24365.67490892 -.00000046  00000+0  00000+0 0  9998
2 32276  65.8716 333.9482 0011855 316.4282 223.8326  2.13103175133728
COSMOS 2434 (721)       
1 32393U 07065A   24365.49910449  .00000115  00000+0  00000+0 0  9993
2 32393  64.3168 209.9300 0004927  72.6975 279.0000  2.13101357132424
COSMOS 2436 (723)       
1 32395U 07065C   24364.86855005  .00000118  00000+0  00000+0 0  9994
2 32395  64.3247 210.0180 0017592   9.5417 352.9781  2.13100150132343
COSMOS 2456 (730)       
1 36111U 09070A   24364.37760567 -.00000017  00000+0  00000+0 0  9995
2 36111  64.7076  89.2623 0003672 295.4247  70.6997  2.13103585117033
COSMOS 2457 (733)       
1 36112U 09070B   24365.59595191 -.00000006  00000+0  00000+0 0  9998
2 36112  64.6926  89.0748 0004712 168.3717 184.7605  2.13101008117052
COSMOS 2460 (732)       
1 36402U 10007C   24365.26112896 -.00000047  00000+0  00000+0 0  9998
2 36402  65.7089 332.4751 0002742 292.2380 158.5059  2.13106182115350
COSMOS 2476 (744)       
1 37867U 11064A   24365.37864037 -.00000007  00000+0  00000+0 0  9997
2 37867  64.9770  90.9356 0024024 235.1927  90.1441  2.13101510102386
COSMOS 2477 (745)       
1 37868U 11064B   24362.45688844 -.00000030  00000+0  00000+0 0  9990
2 37868  64.9827  91.1090 0021068 235.6009 187.3660  2.13102949102322
COSMOS 2475 (743)       
1 37869U 11064C   24364.38332976 -.00000016  00000+0  00000+0 0  9991
2 37869  64.9907  91.0604 0025926 250.3245 168.0652  2.13101560102375
COSMOS 2485 (747)       
1 39155U 13019A   24365.36503329 -.00000006  00000+0  00000+0 0  9993
2 39155  65.1329  91.5608 0024425 231.1488 128.6616  2.13104345 90905
COSMOS 2492 (754)       
1 39620U 14012A   24365.32059671 -.00000047  00000+0  00000+0 0  9991
2 39620  65.5893 332.0219 0014834 315.1763  44.6995  2.13103151 83863
COSMOS 2500 (755)       
1 40001U 14032A   24363.62036513 -.00000053  00000+0  00000+0 0  9996
2 40001  65.5268 331.8691 0007350 223.8258 136.1136  2.13105959 82045
COSMOS 2501 (702K)      
1 40315U 14075A   24364.81440577  .00000118  00000+0  00000+0 0  9993
2 40315  63.6165 208.8824 0019079 203.7229 156.2682  2.13101449 78465
COSMOS 2514 (751)       
1 41330U 16008A   24365.26663432 -.00000048  00000+0  00000+0 0  9999
2 41330  65.3192 331.2732 0011399 223.6279 136.2778  2.13102584 69245
COSMOS 2522 (752)       
1 42939U 17055A   24365.10630916  .00000117  00000+0  00000+0 0  9998
2 42939  64.0780 210.0757 0005723 227.0022 133.0302  2.13101946 56592
COSMOS 2527 (756)       
1 43508U 18053A   24364.59657576 -.00000013  00000+0  00000+0 0  9999
2 43508  65.2917  91.7796 0009089 228.5953 131.3507  2.13102228 50883
COSMOS 2529 (757)       
1 43687U 18086A   24364.22592675  .00000120  00000+0  00000+0 0  9999
2 43687  64.2936 210.6710 0006745 259.8435 100.1637  2.13102047 47880
COSMOS 2534 (758)       
1 44299U 19030A   24365.23305885  .00000117  00000+0  00000+0 0  9992
2 44299  64.3670 210.6088 0008991 289.0065 257.8796  2.13102198 43545
COSMOS 2544 (759)       
1 44850U 19088A   24365.47932847 -.00000005  00000+0  00000+0 0  9995
2 44850  65.2790  91.5828 0014053 252.2065 107.6693  2.13102013 39344
COSMOS 2545 (760)       
1 45358U 20018A   24365.20673960 -.00000049  00000+0  00000+0 0  9991
2 45358  64.6580 331.1260 0011306 254.2173 105.6539  2.13102493 37281
COSMOS 2547 (705K)      
1 46805U 20075A   24364.92387717  .00000118  00000+0  00000+0 0  9998
2 46805  64.5965 210.3188 0005739 231.5202 128.5098  2.13102918 32524
COSMOS 2557 (706K)      
1 52984U 22075A   24365.09006429 -.00000050  00000+0  00000+0 0  9998
2 52984  64.5901 333.2418 0013899 280.7470  79.0934  2.13101863 19330
COSMOS 2559 (707K)      
1 54031U 22130A   24364.56431465 -.00000052  00000+0  00000+0 0  9990
2 54031  64.5624 333.3712 0007567 236.4759 123.4495  2.13101295 17296
COSMOS 2564 (761)       
1 54377U 22161A   24363.81583407  .00000122  00000+0  00000+0 0  9995
2 54377  64.7377 210.4956 0007884 205.3358 154.7091  2.13102147 16221
COSMOS 2569 (703K)      
1 57517U 23114A   24364.77007199 -.00000012  00000+0  00000+0 0  9997
2 57517  65.0084  90.6858 0010771 289.1348  70.7755  2.13104127 10875
